$$SOE
2461295.500000000, A.D. 2026-Sep-12 00:00:00.0000, 1.439527663050196E+08, 2.508058137983260E+08, 8.597174432087241E+07,
2461302.500000000, A.D. 2026-Sep-19 00:00:00.0000, 1.326919604143646E+08, 2.558063133269350E+08, 8.843112089957030E+07,
2461309.500000000, A.D. 2026-Sep-26 00:00:00.0000, 1.211959802929223E+08, 2.603534821857486E+08, 9.073377569702451E+07,
2461316.500000000, A.D. 2026-Oct-03 00:00:00.0000, 1.094846305976997E+08, 2.644380469484028E+08, 9.287520456031780E+07,
2461323.500000000, A.D. 2026-Oct-10 00:00:00.0000, 9.757818630099291E+07, 2.680514652154420E+08, 9.485115127073354E+07,
2461330.500000000, A.D. 2026-Oct-17 00:00:00.0000, 8.549736686690842E+07, 2.711859470190151E+08, 9.665761686237101E+07,
2461337.500000000, A.D. 2026-Oct-24 00:00:00.0000, 7.326330917049594E+07, 2.738344756743140E+08, 9.829086882845213E+07,
2461344.500000000, A.D. 2026-Oct-31 00:00:00.0000, 6.089753922246086E+07, 2.759908279468380E+08, 9.974745017983444E+07,
2461351.500000000, A.D. 2026-Nov-07 00:00:00.0000, 4.842194300573011E+07, 2.776495935410503E+08, 1.010241883089774E+08,
2461358.500000000, A.D. 2026-Nov-14 00:00:00.0000, 3.585873659806263E+07, 2.788061947275671E+08, 1.021182036926453E+08,
2461365.500000000, A.D. 2026-Nov-21 00:00:00.0000, 2.323043375633385E+07, 2.794569067134494E+08, 1.030269186311304E+08,
2461372.500000000, A.D. 2026-Nov-28 00:00:00.0000, 1.055980995562648E+07, 2.795988756469979E+08, 1.037480658297238E+08,
2461379.500000000, A.D. 2026-Dec-05 00:00:00.0000, -2.130133516208945E+06, 2.792301335014614E+08, 1.042796963961979E+08,
2461386.500000000, A.D. 2026-Dec-12 00:00:00.0000, -1.481620524618584E+07, 2.783496128578119E+08, 1.046201874568218E+08,
2461393.500000000, A.D. 2026-Dec-19 00:00:00.0000, -2.747506105115109E+07, 2.769571614852087E+08, 1.047682495181449E+08,
2461400.500000000, A.D. 2026-Dec-26 00:00:00.0000, -4.008324314267957E+07, 2.750535557422920E+08, 1.047229334748021E+08,
2461407.500000000, A.D. 2027-Jan-02 00:00:00.0000, -5.261722081307386E+07, 2.726405125048898E+08, 1.044836371875359E+08,
2461414.500000000, A.D. 2027-Jan-09 00:00:00.0000, -6.505343249553906E+07, 2.697206995348059E+08, 1.040501115852686E+08,
2461421.500000000, A.D. 2027-Jan-16 00:00:00.0000, -7.736832912144360E+07, 2.662977441866140E+08, 1.034224662448133E+08,
2461428.500000000, A.D. 2027-Jan-23 00:00:00.0000, -8.953841867954642E+07, 2.623762402953660E+08, 1.026011743922996E+08,
2461435.500000000, A.D. 2027-Jan-30 00:00:00.0000, -1.015403117327824E+08, 2.579617530773982E+08, 1.015870772562689E+08,
2461442.500000000, A.D. 2027-Feb-06 00:00:00.0000, -1.133507674013867E+08, 2.530608222644287E+08, 1.003813877142514E+08,
2461449.500000000, A.D. 2027-Feb-13 00:00:00.0000, -1.249467401956221E+08, 2.476809645752681E+08, 9.898569333120026E+07,
2461456.500000000, A.D. 2027-Feb-20 00:00:00.0000, -1.363054299681889E+08, 2.418306746287083E+08, 9.740195890146069E+07,
2461463.500000000, A.D. 2027-Feb-27 00:00:00.0000, -1.474043334699789E+08, 2.355194209724206E+08, 9.563252805345853E+07,
2461470.500000000, A.D. 2027-Mar-06 00:00:00.0000, -1.582212943694458E+08, 2.287576390285966E+08, 9.368012374342778E+07,
2461477.500000000, A.D. 2027-Mar-13 00:00:00.0000, -1.687345532128605E+08, 2.215567229105095E+08, 9.154784791368103E+07,
2461484.500000000, A.D. 2027-Mar-20 00:00:00.0000, -1.789227983050586E+08, 2.139290151907961E+08, 8.923918031030956E+07,
2461491.500000000, A.D. 2027-Mar-27 00:00:00.0000, -1.887652171449921E+08, 2.058877939853285E+08, 8.675797635272576E+07,
2461498.500000000, A.D. 2027-Apr-03 00:00:00.0000, -1.982415480414860E+08, 1.974472572263908E+08, 8.410846399244070E+07,
2461505.500000000, A.D. 2027-Apr-10 00:00:00.0000, -2.073321316657621E+08, 1.886225040822691E+08, 8.129523952209316E+07,
2461512.500000000, A.D. 2027-Apr-17 00:00:00.0000, -2.160179623255466E+08, 1.794295134559574E+08, 7.832326230075116E+07,
2461519.500000000, A.D. 2027-Apr-24 00:00:00.0000, -2.242807386782043E+08, 1.698851194615099E+08, 7.519784835700606E+07,
2461526.500000000, A.D. 2027-May-01 00:00:00.0000, -2.321029133704939E+08, 1.600069838810149E+08, 7.192466282348186E+07,
2461533.500000000, A.D. 2027-May-08 00:00:00.0000, -2.394677410767761E+08, 1.498135663405249E+08, 6.850971121996048E+07,
2461540.500000000, A.D. 2027-May-15 00:00:00.0000, -2.463593262088261E+08, 1.393240931644775E+08, 6.495932979160552E+07,
2461547.500000000, A.D. 2027-May-22 00:00:00.0000, -2.527626716391129E+08, 1.285585223468542E+08, 6.128017483452760E+07,
2461554.500000000, A.D. 2027-May-29 00:00:00.0000, -2.586637248453956E+08, 1.175375032245323E+08, 5.747921058554838E+07,
2461561.500000000, A.D. 2027-Jun-05 00:00:00.0000, -2.640494203412114E+08, 1.062823340409403E+08, 5.356369585637255E+07,
2461568.500000000, A.D. 2027-Jun-12 00:00:00.0000, -2.689077201706418E+08, 9.481491790342714E+07, 4.954116965043356E+07,
2461575.500000000, A.D. 2027-Jun-19 00:00:00.0000, -2.732276525788477E+08, 8.315771630663648E+07, 4.541943574690607E+07,
2461582.500000000, A.D. 2027-Jun-26 00:00:00.0000, -2.769993483530197E+08, 7.133370008751328E+07, 4.120654623940574E+07,
2461589.500000000, A.D. 2027-Jul-03 00:00:00.0000, -2.802140744804727E+08, 5.936629796073319E+07, 3.691078405869016E+07,
2461596.500000000, A.D. 2027-Jul-10 00:00:00.0000, -2.828642648772509E+08, 4.727934280136721E+07, 3.254064452554600E+07,
2461603.500000000, A.D. 2027-Jul-17 00:00:00.0000, -2.849435479536829E+08, 3.509701581247633E+07, 2.810481598396847E+07,
2461610.500000000, A.D. 2027-Jul-24 00:00:00.0000, -2.864467706770113E+08, 2.284378870877310E+07, 2.361215955897167E+07,
2461617.500000000, A.D. 2027-Jul-31 00:00:00.0000, -2.873700185512562E+08, 1.054436436170448E+07, 1.907168809110942E+07,
2461624.500000000, A.D. 2027-Aug-07 00:00:00.0000, -2.877106315629759E+08, -1.776382718931840E+06, 1.449254443709035E+07,
2461631.500000000, A.D. 2027-Aug-14 00:00:00.0000, -2.874672182635682E+08, -1.409346608679057E+07, 9.883979409499045E+06,
2461638.500000000, A.D. 2027-Aug-21 00:00:00.0000, -2.866396672705215E+08, -2.638185036450087E+07, 5.255329111542069E+06,
2461645.500000000, A.D. 2027-Aug-28 00:00:00.0000, -2.852291526820349E+08, -3.861651608825444E+07, 6.159915412824452E+05,
2461652.500000000, A.D. 2027-Sep-04 00:00:00.0000, -2.832381345202653E+08, -5.077252361425582E+07, -4.024597128524117E+06,
2461659.500000000, A.D. 2027-Sep-11 00:00:00.0000, -2.806703555509425E+08, -6.282507647212090E+07, -8.656986425174791E+06,
2461666.500000000, A.D. 2027-Sep-18 00:00:00.0000, -2.775308343269342E+08, -7.474958453253989E+07, -1.327173557131499E+07,
2461673.500000000, A.D. 2027-Sep-25 00:00:00.0000, -2.738258542201403E+08, -8.652172677838461E+07, -1.785943752215296E+07,
2461680.500000000, A.D. 2027-Oct-02 00:00:00.0000, -2.695629483750051E+08, -9.811751338015056E+07, -2.241074293683918E+07,
2461687.500000000, A.D. 2027-Oct-09 00:00:00.0000, -2.647508806126428E+08, -1.095133468318548E+08, -2.691638397540604E+07,
2461694.500000000, A.D. 2027-Oct-16 00:00:00.0000, -2.593996223255349E+08, -1.206860819579276E+08, -3.136719782928225E+07,
2461701.500000000, A.D. 2027-Oct-23 00:00:00.0000, -2.535203252366516E+08, -1.316130845427641E+08, -3.575414991497050E+07,
2461708.500000000, A.D. 2027-Oct-30 00:00:00.0000, -2.471252897916892E+08, -1.422722877157991E+08, -4.006835662253994E+07,
2461715.500000000, A.D. 2027-Nov-06 00:00:00.0000, -2.402279304971494E+08, -1.526422447183343E+08, -4.430110732657250E+07,
2461722.500000000, A.D. 2027-Nov-13 00:00:00.0000, -2.328427403526311E+08, -1.627021799039525E+08, -4.844388555547619E+07,
2461729.500000000, A.D. 2027-Nov-20 00:00:00.0000, -2.249852516623768E+08, -1.724320399578397E+08, -5.248838967835661E+07,
2461736.500000000, A.D. 2027-Nov-27 00:00:00.0000, -2.166719918175558E+08, -1.818125421866597E+08, -5.642655293641800E+07,
2461743.500000000, A.D. 2027-Dec-04 00:00:00.0000, -2.079204362941846E+08, -1.908252187940710E+08, -6.025056248379043E+07,
2461750.500000000, A.D. 2027-Dec-11 00:00:00.0000, -1.987489596464663E+08, -1.994524579527393E+08, -6.395287739547823E+07,
2461757.500000000, A.D. 2027-Dec-18 00:00:00.0000, -1.891767844585167E+08, -2.076775418840921E+08, -6.752624563221917E+07,
2461764.500000000, A.D. 2027-Dec-25 00:00:00.0000, -1.792239283533385E+08, -2.154846818462829E+08, -7.096371992403293E+07,
2461771.500000000, A.D. 2028-Jan-01 00:00:00.0000, -1.689111492791985E+08, -2.228590499339349E+08, -7.425867253190233E+07,
$$EOE